NORAD_CAT_ID,OBJECT_NAME,OBJECT_TYPE,EPOCH,MEAN_MOTION,ECCENTRICITY,INCLINATION,RA_OF_ASC_NODE,ARG_OF_PERICENTER,MEAN_ANOMALY,BSTAR,MEAN_MOTION_DOT,MEAN_MOTION_DDOT,TLE_LINE0,TLE_LINE1,TLE_LINE2,SEMIMAJOR_AXIS,PERIOD,APOGEE,PERIGEE,DECAYED
53898.0,STARLINK-5044,PAYLOAD,2023-02-01 06:47:41,15.08852133,0.0001342,53.2206,7.4061,98.6383,261.4762,3.392e-05,2.52e-06,0.0,0 STARLINK-5044,1 53898U 22119N   23032.28311717  .00000252  00000-0  33920-4 0  9998,2 53898  53.2206   7.4061 0001342  98.6383 261.4762 15.08852133 20318,6917.843,95.437,540.637,538.78,0.0
53898.0,STARLINK-5044,PAYLOAD,2023-02-02 03:27:43,15.08830211,0.0001314,53.2213,3.5412,88.9581,271.1562,-7.0038e-05,-1.402e-05,0.0,0 STARLINK-5044,1 53898U 22119N   23033.14425774 -.00001402  00000-0 -70038-4 0  9994,2 53898  53.2213   3.5412 0001314  88.9581 271.1562 15.08830211 20447,6917.91,95.438,540.684,538.866,0.0
53898.0,STARLINK-5044,PAYLOAD,2023-02-02 05:03:06,15.08831852,0.0001393,53.2195,3.2416,99.0381,261.0769,-6.347e-05,-1.298e-05,0.0,0 STARLINK-5044,1 53898U 22119N   23033.21049587 -.00001298  00000-0 -63470-4 0  9991,2 53898  53.2195   3.2416 0001393  99.0381 261.0769 15.08831852 20871,6917.905,95.438,540.734,538.807,0.0
53898.0,STARLINK-5044,PAYLOAD,2023-02-03 01:43:06,15.08846399,0.00012,53.2198,359.3769,93.2279,266.8851,-1.8757e-05,-5.86e-06,0.0,0 STARLINK-5044,1 53898U 22119N   23034.07160809 -.00000586  00000-0 -18757-4 0  9994,2 53898  53.2198 359.3769 0001200  93.2279 266.8851 15.08846399 20584,6917.861,95.437,540.556,538.896,0.0
53898.0,STARLINK-5044,PAYLOAD,2023-02-03 06:29:15,15.08851896,0.0001222,53.2195,358.4847,94.015,266.0982,3.2404e-05,2.28e-06,0.0,0 STARLINK-5044,1 53898U 22119N   23034.27032190  .00000228  00000-0  32404-4 0  9993,2 53898  53.2195 358.4847 0001222  94.0150 266.0982 15.08851896 20618,6917.844,95.437,540.554,538.864,0.0
53898.0,STARLINK-5044,PAYLOAD,2023-02-03 16:01:34,15.08845114,0.0001356,53.2206,356.7006,112.9426,247.171,-3.1481e-05,-7.89e-06,0.0,0 STARLINK-5044,1 53898U 22119N   23034.66776477 -.00000789  00000-0 -31481-4 0  9997,2 53898  53.2206 356.7006 0001356 112.9426 247.1710 15.08845114 20674,6917.865,95.437,540.668,538.792,0.0
53898.0,STARLINK-5044,PAYLOAD,2023-02-04 03:09:17,15.0883131,0.0001202,53.2194,354.6198,79.5195,280.5933,4.0633e-05,3.59e-06,0.0,0 STARLINK-5044,1 53898U 22119N   23035.13145619  .00000359  00000-0  40633-4 0  9998,2 53898  53.2194 354.6198 0001202  79.5195 280.5933 15.08831310 20749,6917.907,95.438,540.603,538.94,0.0
53898.0,STARLINK-5044,PAYLOAD,2023-02-04 06:20:03,15.08834527,0.0001309,53.2194,354.0257,79.34,280.7739,6.6524e-05,7.71e-06,0.0,0 STARLINK-5044,1 53898U 22119N   23035.26393385  .00000771  00000-0  66524-4 0  9992,2 53898  53.2194 354.0257 0001309  79.3400 280.7739 15.08834527 21182,6917.897,95.438,540.668,538.857,0.0
53898.0,STARLINK-5044,PAYLOAD,2023-02-04 20:38:32,15.08840049,0.0001259,53.22,351.3448,86.8091,273.3045,-8.4938e-05,-1.639e-05,0.0,0 STARLINK-5044,1 53898U 22119N   23035.86009665 -.00001639  00000-0 -84938-4 0  9998,2 53898  53.2200 351.3448 0001259  86.8091 273.3045 15.08840049 21279,6917.88,95.438,540.616,538.874,0.0
53898.0,STARLINK-5044,PAYLOAD,2023-02-05 03:00:04,15.08843781,0.0001178,53.2202,350.1556,98.1091,262.0035,-4.8794e-05,-1.064e-05,0.0,0 STARLINK-5044,1 53898U 22119N   23036.12505201 -.00001064  00000-0 -48794-4 0  9997,2 53898  53.2202 350.1556 0001178  98.1091 262.0035 15.08843781 20891,6917.869,95.437,540.549,538.919,0.0
53898.0,STARLINK-5044,PAYLOAD,2023-02-05 06:10:50,15.08848254,0.0001228,53.22,349.562,94.186,265.9273,-5.5624e-06,-3.76e-06,0.0,0 STARLINK-5044,1 53898U 22119N   23036.25752740 -.00000376  00000-0 -55624-5 0  9999,2 53898  53.2200 349.5620 0001228  94.1860 265.9273 15.08848254 21335,6917.855,95.437,540.57,538.871,0.0
53898.0,STARLINK-5044,PAYLOAD,2023-02-06 02:50:51,15.08831722,0.0001504,53.2213,345.6958,133.5109,226.6008,-6.9315e-06,-3.98e-06,0.0,0 STARLINK-5044,1 53898U 22119N   23037.11865695 -.00000398  00000-0 -69315-5 0  9995,2 53898  53.2213 345.6958 0001504 133.5109 226.6008 15.08831722 21041,6917.906,95.438,540.811,538.73,0.0
53898.0,STARLINK-5044,PAYLOAD,2023-02-06 06:01:37,15.08840844,0.0001253,53.2206,345.0998,96.1757,263.9378,-3.1202e-05,-7.84e-06,0.0,0 STARLINK-5044,1 53898U 22119N   23037.25113385 -.00000784  00000-0 -31202-4 0  9994,2 53898  53.2206 345.0998 0001253  96.1757 263.9378 15.08840844 21066,6917.878,95.438,540.61,538.876,0.0
53898.0,STARLINK-5044,PAYLOAD,2023-02-07 02:41:37,15.08854353,0.0001138,53.2196,341.2378,79.644,280.468,0.00010783,1.429e-05,0.0,0 STARLINK-5044,1 53898U 22119N   23038.11224014  .00001429  00000-0  10783-3 0  9997,2 53898  53.2196 341.2378 0001138  79.6440 280.4680 15.08854353 21195,6917.837,95.437,540.489,538.914,0.0
53898.0,STARLINK-5044,PAYLOAD,2023-02-07 05:52:23,15.08856204,0.0001146,53.2195,340.6422,81.4681,278.6441,0.00012099,1.639e-05,0.0,0 STARLINK-5044,1 53898U 22119N   23038.24471736  .00001639  00000-0  12099-3 0  9991,2 53898  53.2195 340.6422 0001146  81.4681 278.6441 15.08856204 21634,6917.831,95.437,540.489,538.903,0.0
53898.0,STARLINK-5044,PAYLOAD,2023-02-08 04:07:47,15.08851117,0.0001019,53.2208,336.4815,89.4409,270.67,6.8873e-05,8.09e-06,0.0,0 STARLINK-5044,1 53898U 22119N   23039.17208111  .00000809  00000-0  68873-4 0  9999,2 53898  53.2208 336.4815 0001019  89.4409 270.6700 15.08851117 21350,6917.846,95.437,540.416,539.006,0.0
53898.0,STARLINK-5044,PAYLOAD,2023-02-08 05:43:11,15.08844524,0.0001135,53.2206,336.1813,95.2792,264.833,0.00011499,1.543e-05,0.0,0 STARLINK-5044,1 53898U 22119N   23039.23832204  .00001543  00000-0  11499-3 0  9999,2 53898  53.2206 336.1813 0001135  95.2792 264.8330 15.08844524 21787,6917.867,95.437,540.517,538.946,0.0
53898.0,STARLINK-5044,PAYLOAD,2023-02-09 02:23:13,15.08832356,0.0001023,53.2206,332.3168,108.5549,251.5555,-0.00011939,-2.187e-05,0.0,0 STARLINK-5044,1 53898U 22119N   23040.09946061 -.00002187  00000-0 -11939-3 0  9998,2 53898  53.2206 332.3168 0001023 108.5549 251.5555 15.08832356 21492,6917.904,95.438,540.476,539.061,0.0
53898.0,STARLINK-5044,PAYLOAD,2023-02-09 05:33:58,15.08848253,6.85e-05,53.2202,331.7226,96.8504,263.2566,-4.6482e-05,-1.027e-05,0.0,0 STARLINK-5044,1 53898U 22119N   23040.23192904 -.00001027  00000-0 -46482-4 0  9997,2 53898  53.2202 331.7226 0000685  96.8504 263.2566 15.08848253 21933,6917.855,95.437,540.194,539.246,0.0
53898.0,STARLINK-5044,PAYLOAD,2023-02-09 23:03:13,15.08838248,9.23e-05,53.2204,328.4534,124.8558,235.2521,-7.574e-06,-4.08e-06,0.0,0 STARLINK-5044,1 53898U 22119N   23040.96057399 -.00000408  00000-0 -75740-5 0  9997,2 53898  53.2204 328.4534 0000923 124.8558 235.2521 15.08838248 21625,6917.886,95.438,540.389,539.112,0.0
53898.0,STARLINK-5044,PAYLOAD,2023-02-10 03:49:21,15.0886391,8.42e-05,53.2202,327.5607,110.3206,249.7877,0.00012518,1.706e-05,0.0,0 STARLINK-5044,1 53898U 22119N   23041.15927342  .00001706  00000-0  12518-3 0  9995,2 53898  53.2202 327.5607 0000842 110.3206 249.7877 15.08863910 22072,6917.807,95.436,540.255,539.09,0.0
53898.0,STARLINK-5044,PAYLOAD,2023-02-10 05:24:44,15.08864262,7.64e-05,53.2203,327.262,106.9089,253.1987,0.00011618,1.563e-05,0.0,0 STARLINK-5044,1 53898U 22119N   23041.22551240  .00001563  00000-0  11618-3 0  9994,2 53898  53.2203 327.2620 0000764 106.9089 253.1987 15.08864262 21664,6917.806,95.436,540.2,539.143,0.0
53898.0,STARLINK-5044,PAYLOAD,2023-02-11 02:04:45,15.08855566,4.84e-05,53.2201,323.3964,108.819,251.2855,0.00011421,1.531e-05,0.0,0 STARLINK-5044,1 53898U 22119N   23042.08663915  .00001531  00000-0  11421-3 0  9999,2 53898  53.2201 323.3964 0000484 108.8190 251.2855 15.08855566 21797,6917.833,95.437,540.033,539.363,0.0
53898.0,STARLINK-5044,PAYLOAD,2023-02-11 17:58:39,15.08828607,7.22e-05,53.2194,320.4249,69.3402,290.7668,-4.1979e-05,-9.55e-06,0.0,0 STARLINK-5044,1 53898U 22119N   23042.74906305 -.00000955  00000-0 -41979-4 0  9998,2 53898  53.2194 320.4249 0000722  69.3402 290.7668 15.08828607 21891,6917.915,95.438,540.28,539.281,0.0
53898.0,STARLINK-5044,PAYLOAD,2023-02-12 03:30:57,15.0884412,9.91e-05,53.2191,318.6451,83.4059,276.7046,-8.5383e-05,-1.647e-05,0.0,0 STARLINK-5044,1 53898U 22119N   23043.14649657 -.00001647  00000-0 -85383-4 0  9993,2 53898  53.2191 318.6451 0000991  83.4059 276.7046 15.08844120 21954,6917.868,95.437,540.418,539.047,0.0
53898.0,STARLINK-5044,PAYLOAD,2023-02-12 11:27:54,15.0883362,0.0001647,53.2193,317.153,75.3371,284.7803,-0.00026484,-4.5e-05,0.0,0 STARLINK-5044,1 53898U 22119N   23043.47771086 -.00004500  00000-0 -26484-3 0  9998,2 53898  53.2193 317.1530 0001647  75.3371 284.7803 15.08833620 22004,6917.9,95.438,540.904,538.626,0.0
53898.0,STARLINK-5044,PAYLOAD,2023-02-12 17:49:26,15.08835981,0.000149,53.2206,315.9634,68.154,291.9611,-8.779e-06,-4.28e-06,0.0,0 STARLINK-5044,1 53898U 22119N   23043.74266395 -.00000428  00000-0 -87790-5 0  9994,2 53898  53.2206 315.9634 0001490  68.1540 291.9611 15.08835981 22047,6917.893,95.438,540.788,538.727,0.0
53898.0,STARLINK-5044,PAYLOAD,2023-02-13 00:10:58,15.08846211,0.0001473,53.2198,314.7747,62.2756,297.8385,-7.5538e-05,-1.49e-05,0.0,0 STARLINK-5044,1 53898U 22119N   23044.00761819 -.00001490  00000-0 -75538-4 0  9991,2 53898  53.2198 314.7747 0001473  62.2756 297.8385 15.08846211 22089,6917.861,95.437,540.745,538.707,0.0
53898.0,STARLINK-5044,PAYLOAD,2023-02-14 00:01:45,15.08841387,0.0001236,53.2187,310.3121,90.6965,269.4169,-2.1054e-05,-6.23e-06,0.0,0 STARLINK-5044,1 53898U 22119N   23045.00121598 -.00000623  00000-0 -21054-4 0  9997,2 53898  53.2187 310.3121 0001236  90.6965 269.4169 15.08841387 22656,6917.876,95.437,540.596,538.886,0.0
53898.0,STARLINK-5044,PAYLOAD,2023-02-14 17:31:00,15.08829439,0.000164,53.2196,307.0433,71.0556,289.0614,-7.9031e-05,-1.545e-05,0.0,0 STARLINK-5044,1 53898U 22119N   23045.72986960 -.00001545  00000-0 -79031-4 0  9990,2 53898  53.2196 307.0433 0001640  71.0556 289.0614 15.08829439 22346,6917.913,95.438,540.912,538.643,0.0
